#aV2014  9 24  0  0  0.00000000     288 DD+AD WGS84 FIT  NGA
## 1811 259200.00000000   300.00000000 56924 0.0000000000000
+   31     1  2  4  5  6  7  8  9 10 11 12 13 14 15 16 17 18
+         19 20 21 22 23 24 25 26 27 28 29 30 31 32  0  0  0
+          0  0  0  0  0  0  0  0  0  0  0  0  0  0  0  0  0
+          0  0  0  0  0  0  0  0  0  0  0  0  0  0  0  0  0
+          0  0  0  0  0  0  0  0  0  0  0  0  0  0  0  0  0
++         2  2  2  2  2  2  2  2  2  2  2  2  2  2  2  2  2
++         2  2  2  2  2  2  2  2  2  2  2  2  2  2  0  0  0
++         0  0  0  0  0  0  0  0  0  0  0  0  0  0  0  0  0
++         0  0  0  0  0  0  0  0  0  0  0  0  0  0  0  0  0
++         0  0  0  0  0  0  0  0  0  0  0  0  0  0  0  0  0
%c cc cc ccc ccc cccc cccc cccc cccc ccccc ccccc ccccc ccccc
%c cc cc ccc ccc cccc cccc cccc cccc ccccc ccccc ccccc ccccc
%f  0.0000000  0.000000000  0.00000000000  0.000000000000000
%f  0.0000000  0.000000000  0.00000000000  0.000000000000000
%i    0    0    0    0      0      0      0      0         0
%i    0    0    0    0      0      0      0      0         0
/*      NGA, ST. LOUIS,MO.                                  
/*   EPHEMERIS COMPUTED FROM  1 DAYS OF DATA                
/*   EPOCHA SMOOTHER                                       
/* CCCCCCCCCCCCCCCCCCCCCCCCCCCCCCCCCCCCCCCCCCCCCCCCCCCCCCCCC
*  2014  9 24 20 20  0.00000000
P  1  18981.127847  13375.926267 -13081.590493     21.645695                    
V  1 -16555.761820  -1355.841438 -25345.062697      0.004965                    
P  2   5504.284403 -14973.677852  21508.512037    520.353880                    
V  2  26190.486239   5280.471451  -3553.837258      0.022119                    
P  4  22593.448163  11167.683907  -9046.920196     -0.977062                    
V  4 -11376.760588    762.273291 -28236.855624     -0.003567                    
P  5   -221.677763 -24289.670126  10492.726864   -336.330905                    
V  5   7121.902655  11814.232219  27561.796553      0.038709                    
P  6  18828.523630  -8158.960592  16840.004345     -3.864370                    
V  6  20627.440977   6034.084896 -20134.194233      0.013945                    
P  7  25839.882576   6856.744241   1207.361936    395.217692                    
V  7  -1854.715238   1763.732305  31727.432970      0.041304                    
P  8  23275.336883  12123.450585   6036.716620     15.645505                    
V  8  -7226.497219  -1319.238422  30914.329119      0.001260                    
P  9  17514.492801   1305.279801  19935.603225     17.331679                    
V  9 -15914.733905  19702.312924  12678.132045     -0.031127                    
P 10  11826.015573 -11575.604980  20334.149986   -143.185431                    
V 10   9313.275067  25149.202778   9171.301024     -0.013709                    
P 11  12810.332410  14009.007546 -19152.792386   -523.735927                    
V 11 -23105.193588   4693.926840 -12176.415231     -0.028739                    
P 12 -10297.501966 -24076.237966   5000.309884    234.266118                    
V 12   -104.400887  -6619.442133 -31391.639728      0.026579                    
P 13  18082.394014   1301.320142  19354.410202    -44.768010                    
V 13 -17664.073582  17371.402105  15049.082462     -0.036424                    
P 14 -21434.970890  13435.334166  -7601.838525    131.737852                    
V 14   5399.849276  -8804.682724 -30015.342989     -0.036841                    
P 15  -4254.384792 -17493.029673 -19494.316117   -204.778369                    
V 15  16992.360509 -18149.425114  12920.385916     -0.022363                    
P 16   -839.154982  24105.490190  10644.131350   -192.662332                    
V 16  -5403.985107 -12724.476859  28584.355106      0.025847                    
P 17  21064.997564 -13455.257588  -8367.371647   -126.207255                    
V 17  -5835.412655   9731.427234 -29636.006738     -0.027004                    
P 18 -17184.933693  -6101.293877 -18947.033390    347.022731                    
V 18  -6657.689652 -24234.197464  13197.371150      0.024375                    
P 19  -1454.301258  18890.390326 -18589.744155   -480.321369                    
V 19 -18225.074805  14785.930182  17035.998543     -0.018829                    
P 20  15220.602233  19850.025764   8842.300606    237.680267                    
V 20   1082.254096  12004.714950 -28125.686907      0.043715                    
P 21 -26377.083779  -2888.864025  -3034.278995   -385.813004                    
V 21  -3872.092002  -4181.468402  30542.667163     -0.020910                    
P 22 -13472.304261   9087.753866 -20774.511588    270.937168                    
V 22  -9491.025270 -25339.560807  -5042.683564      0.034273                    
P 23  10691.685676  11258.615967  21662.101621    -54.845252                    
V 23 -18536.526464  19992.355010  -1672.632178     -0.028922                    
P 24 -15810.954263 -14440.948559 -15798.671217    -35.741198                    
V 24  20009.936977   1877.417296 -21661.060882     -0.006523                    
P 25 -15741.077817 -15314.984995  14953.003142     20.516394                    
V 25  -4485.515353 -18572.723199 -23493.219724     -0.011362                    
P 26   8793.928687 -21056.387811 -14005.314577    -66.228154                    
V 26  13615.533509  -9980.091434  24996.018295     -0.129824                    
P 27 -10355.612027  22254.615013 -10076.028000     17.081441                    
V 27 -10311.937798   7952.043821  28271.376076      0.029932                    
P 28  13955.594398  -3319.570339 -21747.431946    386.651896                    
V 28   7320.143594  28087.940895    277.299063      0.026718                    
P 29 -16643.664152  -3118.287959  20478.175149    562.504844                    
V 29  17579.370955 -19078.458997  11434.085664      0.024565                    
P 30  24734.786417     19.719902  -9745.262115    -65.706678                    
V 30  11166.012604   5890.253593  28303.515004     -0.042020                    
P 31 -17514.287247   8527.376809  18349.079243    331.330915                    
V 31 -21954.357147  -6357.641828 -17847.200549     -0.004608                    
P 32   4785.232733  26345.565249  -2103.035957   -332.687404                    
V 32  -3292.892219  -1953.428353 -30961.775350      0.086526                    
EOF
